{"type": "FeatureCollection", "features": [{"type": "Feature", "properties": {"name": "אריאל — גבול שיפוט", "source": "OpenStreetMap relation 10011903 (admin_level=8), outer ways only", "note": "מודלל ל~350מ' דיוק; לרקע ויזואלי בלבד, לא לשימוש משפטי"}, "geometry": {"type": "MultiLineString", "coordinates": [[[35.1766, 32.1107], [35.1795, 32.1093], [35.1829, 32.11], [35.1866, 32.1093], [35.1896, 32.108], [35.1928, 32.1072], [35.1961, 32.1072], [35.1997, 32.107], [35.2031, 32.1063], [35.2053, 32.1084], [35.2087, 32.1064], [35.2115, 32.1085], [35.2153, 32.1085], [35.2185, 32.1087], [35.2159, 32.1071], [35.2145, 32.1046], [35.2111, 32.1027], [35.2078, 32.1008], [35.2098, 32.098], [35.2075, 32.0952], [35.2047, 32.0919], [35.2003, 32.0923], [35.2025, 32.0949], [35.2038, 32.098], [35.1999, 32.0978], [35.1973, 32.0999], [35.1993, 32.0973], [35.2018, 32.0954], [35.1982, 32.0957], [35.1953, 32.0973], [35.1927, 32.0993], [35.1901, 32.1011], [35.1869, 32.1023], [35.1869, 32.0994], [35.1835, 32.0983], [35.1795, 32.0978], [35.1772, 32.0959], [35.1734, 32.0966], [35.1704, 32.0979], [35.1697, 32.0947], [35.1665, 32.0954], [35.164, 32.0974], [35.1612, 32.0993], [35.1645, 32.0985], [35.1674, 32.0972], [35.1683, 32.0999], [35.165, 32.1011], [35.164, 32.1045], [35.1675, 32.1034], [35.1691, 32.106], [35.1716, 32.1082], [35.1759, 32.1085], [35.1766, 32.1107]], [[35.1896, 32.0987], [35.1917, 32.0966], [35.1883, 32.0949], [35.1849, 32.0953], [35.1861, 32.0983], [35.1896, 32.0987]], [[35.1411, 32.0815], [35.1445, 32.0807], [35.144, 32.0776], [35.1406, 32.0763], [35.1373, 32.0755], [35.1332, 32.0751], [35.13, 32.077], [35.1293, 32.0797], [35.1325, 32.0811], [35.1365, 32.0807], [35.1403, 32.0815], [35.1411, 32.0815]], [[35.1638, 32.1084], [35.1612, 32.1062], [35.1612, 32.1034], [35.1578, 32.1018], [35.1593, 32.0986], [35.1549, 32.0975], [35.1584, 32.0958], [35.1623, 32.0958], [35.1633, 32.0929], [35.1603, 32.0921], [35.1563, 32.0915], [35.1536, 32.0938], [35.1544, 32.0907], [35.1528, 32.0878], [35.1498, 32.0866], [35.1458, 32.0862], [35.1444, 32.0887], [35.1433, 32.0915], [35.1401, 32.0931], [35.1395, 32.0958], [35.137, 32.093], [35.1338, 32.0916], [35.1308, 32.0903], [35.1309, 32.0937], [35.1272, 32.0941], [35.1236, 32.0928], [35.1231, 32.0899], [35.1267, 32.0893], [35.1285, 32.0867], [35.1317, 32.0869], [35.1305, 32.0841], [35.1271, 32.084], [35.1241, 32.0827], [35.1216, 32.0811], [35.1184, 32.0821], [35.115, 32.0829], [35.113, 32.0851], [35.1163, 32.0867], [35.1189, 32.0884], [35.1163, 32.0908], [35.1164, 32.094], [35.1181, 32.097], [35.1216, 32.0973], [35.1254, 32.0975], [35.128, 32.0958], [35.1302, 32.0986], [35.1323, 32.0962], [35.1357, 32.095], [35.1336, 32.0972], [35.1325, 32.1006], [35.1299, 32.1032], [35.1325, 32.1055], [35.1354, 32.1033], [35.1384, 32.104], [35.1411, 32.1062], [35.1428, 32.1036], [35.1449, 32.1057], [35.1482, 32.1061], [35.1516, 32.105], [35.1485, 32.1033], [35.1507, 32.1003], [35.1504, 32.0971], [35.1542, 32.0979], [35.1562, 32.1003], [35.1583, 32.103], [35.1602, 32.1059], [35.1626, 32.1082], [35.1638, 32.1084]]]}}]}